EUTELSAT KA-SAT 9A      
1 37258U 10069A   17344.75347756  .00000054  00000-0  00000-0 0  9993
2 37258   0.0271 287.3121 0004227 358.8545  73.7922  1.00270710 12858
